[{"OBJECT_NAME":"STARLINK-2588","OBJECT_ID":"2021-038AX","EPOCH":"2026-03-09T22:36:04.296960","MEAN_MOTION":15.15106652,"ECCENTRICITY":0.00059986,"INCLINATION":53.0735,"RA_OF_ASC_NODE":337.743,"ARG_OF_PERICENTER":113.5514,"MEAN_ANOMALY":246.611,"EPHEMERIS_TYPE":0,"CLASSIFICATION_TYPE":"U","NORAD_CAT_ID":48398,"ELEMENT_SET_NO":999,"REV_AT_EPOCH":26860,"BSTAR":0.0020267128,"MEAN_MOTION_DOT":0.00038318,"MEAN_MOTION_DDOT":0},{"OBJECT_NAME":"OBJECT M","OBJECT_ID":"2019-093M","EPOCH":"2026-03-09T22:23:03.457824","MEAN_MOTION":15.21921823,"ECCENTRICITY":0.00209816,"INCLINATION":97.7601,"RA_OF_ASC_NODE":172.1908,"ARG_OF_PERICENTER":299.2793,"MEAN_ANOMALY":60.6345,"EPHEMERIS_TYPE":0,"CLASSIFICATION_TYPE":"U","NORAD_CAT_ID":44890,"ELEMENT_SET_NO":999,"REV_AT_EPOCH":33917,"BSTAR":0.00037800273,"MEAN_MOTION_DOT":8.589e-5,"MEAN_MOTION_DDOT":0}]
